[{"OBJECT_NAME":"SITRO-AIS 27","OBJECT_ID":"2024-039T","EPOCH":"2026-03-09T23:22:19.197120","MEAN_MOTION":14.92842486,"ECCENTRICITY":0.01447292,"INCLINATION":95.3935,"RA_OF_ASC_NODE":167.0882,"ARG_OF_PERICENTER":314.6456,"MEAN_ANOMALY":44.3041,"EPHEMERIS_TYPE":0,"CLASSIFICATION_TYPE":"U","NORAD_CAT_ID":59068,"ELEMENT_SET_NO":999,"REV_AT_EPOCH":10993,"BSTAR":0.00034082381,"MEAN_MOTION_DOT":4.294e-5,"MEAN_MOTION_DDOT":0},{"OBJECT_NAME":"KINEIS-4E","OBJECT_ID":"2025-056A","EPOCH":"2026-03-08T11:06:43.945632","MEAN_MOTION":14.72360351,"ECCENTRICITY":8.464e-5,"INCLINATION":97.9937,"RA_OF_ASC_NODE":193.7908,"ARG_OF_PERICENTER":180.4919,"MEAN_ANOMALY":179.6288,"EPHEMERIS_TYPE":0,"CLASSIFICATION_TYPE":"U","NORAD_CAT_ID":63300,"ELEMENT_SET_NO":999,"REV_AT_EPOCH":5230,"BSTAR":0.00050056245,"MEAN_MOTION_DOT":3.119e-5,"MEAN_MOTION_DDOT":0}]
